{"type": "FeatureCollection", "features": [ {"type": "Feature", "properties": {"norad_id": 43566, "name": "GSAT0219 (GALILEO 23)", "group": "gnss", "lat": -40.64743115651452, "lon": -159.49289116077634, "alt_km": 23217.039127972253, "timestamp": "2025-12-08T15:42:50.033796+00:00", "meta": {"OBJECT_NAME": "GSAT0219 (GALILEO 23)", "OBJECT_ID": "2018-060C", "EPOCH": "2025-12-07T16:36:27.181728", "MEAN_MOTION": 1.7047564, "ECCENTRICITY": 0.00057893, "INCLINATION": 57.2316, "RA_OF_ASC_NODE": 346.9585, "ARG_OF_PERICENTER": 285.9629, "MEAN_ANOMALY": 73.992, "EPHEMERIS_TYPE": 0, "CLASSIFICATION_TYPE": "U", "NORAD_CAT_ID": 43566, "ELEMENT_SET_NO": 999, "REV_AT_EPOCH": 4592, "BSTAR": 0, "MEAN_MOTION_DOT": -8.4e-07, "MEAN_MOTION_DDOT": 0}, "tle": {"line1": "1 43566U 18060C   25341.69198127 -.00000084  00000+0  00000+0 0  9998", "line2": "2 43566  57.2316 346.9585 0005789 285.9629  73.9920  1.70475640 45924"}}, "geometry": {"type": "Point", "coordinates": [-159.49289116077634, -40.64743115651452]}}, {"type": "Feature", "properties": {"norad_id": 43567, "name": "GSAT0220 (GALILEO 24)", "group": "gnss", "lat": 56.83974826401144, "lon": 86.55929498097629, "alt_km": 23233.702195063513, "timestamp": "2025-12-08T15:42:50.033807+00:00", "meta": {"OBJECT_NAME": "GSAT0220 (GALILEO 24)", "OBJECT_ID": "2018-060D", "EPOCH": "2025-12-07T07:49:54.342624", "MEAN_MOTION": 1.70475454, "ECCENTRICITY": 0.00061757, "INCLINATION": 57.2312, "RA_OF_ASC_NODE": 346.9681, "ARG_OF_PERICENTER": 282.9528, "MEAN_ANOMALY": 76.9979, "EPHEMERIS_TYPE": 0, "CLASSIFICATION_TYPE": "U", "NORAD_CAT_ID": 43567, "ELEMENT_SET_NO": 999, "REV_AT_EPOCH": 4590, "BSTAR": 0, "MEAN_MOTION_DOT": -8.3e-07, "MEAN_MOTION_DDOT": 0}, "tle": {"line1": "1 43567U 18060D   25341.32632341 -.00000083  00000+0  00000+0 0  9999", "line2": "2 43567  57.2312 346.9681 0006175 282.9528  76.9979  1.70475454 45901"}}, "geometry": {"type": "Point", "coordinates": [86.55929498097629, 56.83974826401144]}}, {"type": "Feature", "properties": {"norad_id": 43581, "name": "BEIDOU-3 M5 (C23)", "group": "gnss", "lat": 48.67961937950341, "lon": -46.7466267772218, "alt_km": 21525.313664460642, "timestamp": "2025-12-08T15:42:50.033819+00:00", "meta": {"OBJECT_NAME": "BEIDOU-3 M5 (C23)", "OBJECT_ID": "2018-062A", "EPOCH": "2025-12-07T09:56:06.121536", "MEAN_MOTION": 1.86228654, "ECCENTRICITY": 0.00021243, "INCLINATION": 54.089, "RA_OF_ASC_NODE": 188.8244, "ARG_OF_PERICENTER": 353.2088, "MEAN_ANOMALY": 6.859, "EPHEMERIS_TYPE": 0, "CLASSIFICATION_TYPE": "U", "NORAD_CAT_ID": 43581, "ELEMENT_SET_NO": 999, "REV_AT_EPOCH": 5006, "BSTAR": 0, "MEAN_MOTION_DOT": 5.9e-07, "MEAN_MOTION_DDOT": 0}, "tle": {"line1": "1 43581U 18062A   25341.41395974  .00000059  00000+0  00000+0 0  9997", "line2": "2 43581  54.0890 188.8244 0002124 353.2088   6.8590  1.86228654 50063"}}, "geometry": {"type": "Point", "coordinates": [-46.7466267772218, 48.67961937950341]}}, {"type": "Feature", "properties": {"norad_id": 43582, "name": "BEIDOU-3 M6 (C24)", "group": "gnss", "lat": -19.087768169064415, "lon": 23.30513850778676, "alt_km": 21550.856117232754, "timestamp": "2025-12-08T15:42:50.033832+00:00", "meta": {"OBJECT_NAME": "BEIDOU-3 M6 (C24)", "OBJECT_ID": "2018-062B", "EPOCH": "2025-12-07T19:32:10.570272", "MEAN_MOTION": 1.86229692, "ECCENTRICITY": 0.00077761, "INCLINATION": 54.0886, "RA_OF_ASC_NODE": 188.7999, "ARG_OF_PERICENTER": 46.2812, "MEAN_ANOMALY": 313.8511, "EPHEMERIS_TYPE": 0, "CLASSIFICATION_TYPE": "U", "NORAD_CAT_ID": 43582, "ELEMENT_SET_NO": 999, "REV_AT_EPOCH": 5007, "BSTAR": 0, "MEAN_MOTION_DOT": 5.5e-07, "MEAN_MOTION_DDOT": 0}, "tle": {"line1": "1 43582U 18062B   25341.81401123  .00000055  00000+0  00000+0 0  9992", "line2": "2 43582  54.0886 188.7999 0007776  46.2812 313.8511  1.86229692 50075"}}, "geometry": {"type": "Point", "coordinates": [23.30513850778676, -19.087768169064415]}}, {"type": "Feature", "properties": {"norad_id": 43602, "name": "BEIDOU-3 M12 (C26)", "group": "gnss", "lat": -47.50559651158741, "lon": 59.551325219943266, "alt_km": 21557.002372685685, "timestamp": "2025-12-08T15:42:50.033846+00:00", "meta": {"OBJECT_NAME": "BEIDOU-3 M12 (C26)", "OBJECT_ID": "2018-067A", "EPOCH": "2025-12-07T18:02:34.116000", "MEAN_MOTION": 1.86227677, "ECCENTRICITY": 0.00091651, "INCLINATION": 54.1832, "RA_OF_ASC_NODE": 187.5325, "ARG_OF_PERICENTER": 40.8071, "MEAN_ANOMALY": 319.3279, "EPHEMERIS_TYPE": 0, "CLASSIFICATION_TYPE": "U", "NORAD_CAT_ID": 43602, "ELEMENT_SET_NO": 999, "REV_AT_EPOCH": 4955, "BSTAR": 0, "MEAN_MOTION_DOT": 5.6e-07, "MEAN_MOTION_DDOT": 0}, "tle": {"line1": "1 43602U 18067A   25341.75178375  .00000056  00000+0  00000+0 0  9994", "line2": "2 43602  54.1832 187.5325 0009165  40.8071 319.3279  1.86227677 49555"}}, "geometry": {"type": "Point", "coordinates": [59.551325219943266, -47.50559651158741]}}, {"type": "Feature", "properties": {"norad_id": 43603, "name": "BEIDOU-3 M11 (C25)", "group": "gnss", "lat": 19.75414706446853, "lon": -7.564138943929937, "alt_km": 21533.5483408034, "timestamp": "2025-12-08T15:42:50.033857+00:00", "meta": {"OBJECT_NAME": "BEIDOU-3 M11 (C25)", "OBJECT_ID": "2018-067B", "EPOCH": "2025-12-07T08:23:01.597056", "MEAN_MOTION": 1.8622716, "ECCENTRICITY": 0.00055888, "INCLINATION": 54.1804, "RA_OF_ASC_NODE": 187.5103, "ARG_OF_PERICENTER": 36.6021, "MEAN_ANOMALY": 323.5051, "EPHEMERIS_TYPE": 0, "CLASSIFICATION_TYPE": "U", "NORAD_CAT_ID": 43603, "ELEMENT_SET_NO": 999, "REV_AT_EPOCH": 4957, "BSTAR": 0, "MEAN_MOTION_DOT": 6e-07, "MEAN_MOTION_DDOT": 0}, "tle": {"line1": "1 43603U 18067B   25341.34932404  .00000060  00000+0  00000+0 0  9996", "line2": "2 43603  54.1804 187.5103 0005588  36.6021 323.5051  1.86227160 49576"}}, "geometry": {"type": "Point", "coordinates": [-7.564138943929937, 19.75414706446853]}}, {"type": "Feature", "properties": {"norad_id": 43622, "name": "BEIDOU-3 M13 (C32)", "group": "gnss", "lat": -3.572562215602367, "lon": -108.66385996968704, "alt_km": 21535.393322913715, "timestamp": "2025-12-08T15:42:50.033868+00:00", "meta": {"OBJECT_NAME": "BEIDOU-3 M13 (C32)", "OBJECT_ID": "2018-072A", "EPOCH": "2025-12-03T13:07:53.541408", "MEAN_MOTION": 1.86230692, "ECCENTRICITY": 0.00056735, "INCLINATION": 56.4512, "RA_OF_ASC_NODE": 69.1249, "ARG_OF_PERICENTER": 298.6305, "MEAN_ANOMALY": 61.3164, "EPHEMERIS_TYPE": 0, "CLASSIFICATION_TYPE": "U", "NORAD_CAT_ID": 43622, "ELEMENT_SET_NO": 999, "REV_AT_EPOCH": 4901, "BSTAR": 0, "MEAN_MOTION_DOT": -5e-07, "MEAN_MOTION_DDOT": 0}, "tle": {"line1": "1 43622U 18072A   25337.54714747 -.00000050  00000+0  00000+0 0  9998", "line2": "2 43622  56.4512  69.1249 0005673 298.6305  61.3164  1.86230692 49019"}}, "geometry": {"type": "Point", "coordinates": [-108.66385996968704, -3.572562215602367]}}, {"type": "Feature", "properties": {"norad_id": 43623, "name": "BEIDOU-3 M14 (C33)", "group": "gnss", "lat": -56.209706050295104, "lon": -12.880620962511998, "alt_km": 21529.265889067272, "timestamp": "2025-12-08T15:42:50.033879+00:00", "meta": {"OBJECT_NAME": "BEIDOU-3 M14 (C33)", "OBJECT_ID": "2018-072B", "EPOCH": "2025-12-08T05:53:08.473344", "MEAN_MOTION": 1.8623075, "ECCENTRICITY": 0.00032562, "INCLINATION": 56.4569, "RA_OF_ASC_NODE": 68.9631, "ARG_OF_PERICENTER": 332.5752, "MEAN_ANOMALY": 27.4289, "EPHEMERIS_TYPE": 0, "CLASSIFICATION_TYPE": "U", "NORAD_CAT_ID": 43623, "ELEMENT_SET_NO": 999, "REV_AT_EPOCH": 4909, "BSTAR": 0, "MEAN_MOTION_DOT": -4.5e-07, "MEAN_MOTION_DDOT": 0}, "tle": {"line1": "1 43623U 18072B   25342.24523696 -.00000045  00000+0  00000+0 0  9997", "line2": "2 43623  56.4569  68.9631 0003256 332.5752  27.4289  1.86230750 49097"}}, "geometry": {"type": "Point", "coordinates": [-12.880620962511998, -56.209706050295104]}}, {"type": "Feature", "properties": {"norad_id": 43647, "name": "BEIDOU-3 M16 (C35)", "group": "gnss", "lat": 9.055112003129274, "lon": 120.05995395069253, "alt_km": 21544.15326389152, "timestamp": "2025-12-08T15:42:50.033890+00:00", "meta": {"OBJECT_NAME": "BEIDOU-3 M16 (C35)", "OBJECT_ID": "2018-078A", "EPOCH": "2025-12-07T20:47:16.965312", "MEAN_MOTION": 1.86232177, "ECCENTRICITY": 0.00071256, "INCLINATION": 54.2666, "RA_OF_ASC_NODE": 306.6916, "ARG_OF_PERICENTER": 18.9999, "MEAN_ANOMALY": 341.0132, "EPHEMERIS_TYPE": 0, "CLASSIFICATION_TYPE": "U", "NORAD_CAT_ID": 43647, "ELEMENT_SET_NO": 999, "REV_AT_EPOCH": 4859, "BSTAR": 0, "MEAN_MOTION_DOT": -7.1e-07, "MEAN_MOTION_DDOT": 0}, "tle": {"line1": "1 43647U 18078A   25341.86616858 -.00000071  00000+0  00000+0 0  9998", "line2": "2 43647  54.2666 306.6916 0007125  18.9999 341.0132  1.86232177 48593"}}, "geometry": {"type": "Point", "coordinates": [120.05995395069253, 9.055112003129274]}}, {"type": "Feature", "properties": {"norad_id": 43648, "name": "BEIDOU-3 M15 (C34)", "group": "gnss", "lat": 53.523051815947426, "lon": 23.349448476077626, "alt_km": 21517.24922989677, "timestamp": "2025-12-08T15:42:50.033903+00:00", "meta": {"OBJECT_NAME": "BEIDOU-3 M15 (C34)", "OBJECT_ID": "2018-078B", "EPOCH": "2025-12-05T07:27:18.667008", "MEAN_MOTION": 1.86231965, "ECCENTRICITY": 0.00036856, "INCLINATION": 54.2646, "RA_OF_ASC_NODE": 306.7819, "ARG_OF_PERICENTER": 17.7509, "MEAN_ANOMALY": 342.2442, "EPHEMERIS_TYPE": 0, "CLASSIFICATION_TYPE": "U", "NORAD_CAT_ID": 43648, "ELEMENT_SET_NO": 999, "REV_AT_EPOCH": 4856, "BSTAR": 0, "MEAN_MOTION_DOT": -6.9e-07, "MEAN_MOTION_DDOT": 0}, "tle": {"line1": "1 43648U 18078B   25339.31063272 -.00000069  00000+0  00000+0 0  9999", "line2": "2 43648  54.2646 306.7819 0003685  17.7509 342.2442  1.86231965 48564"}}, "geometry": {"type": "Point", "coordinates": [23.349448476077626, 53.523051815947426]}}]}